[{"OBJECT_NAME":"TURKMENALEM52E/MONACOSAT","OBJECT_ID":"2015-023A","EPOCH":"2026-03-15T05:17:38.501664","MEAN_MOTION":1.0027305,"ECCENTRICITY":0.00029279,"INCLINATION":0.0352,"RA_OF_ASC_NODE":98.4476,"ARG_OF_PERICENTER":265.8602,"MEAN_ANOMALY":299.931,"EPHEMERIS_TYPE":0,"CLASSIFICATION_TYPE":"U","NORAD_CAT_ID":40617,"ELEMENT_SET_NO":999,"REV_AT_EPOCH":3990,"BSTAR":0,"MEAN_MOTION_DOT":1.03e-6,"MEAN_MOTION_DDOT":0},{"OBJECT_NAME":"DIRECTV 15","OBJECT_ID":"2015-026A","EPOCH":"2026-03-13T23:07:38.647200","MEAN_MOTION":1.00273949,"ECCENTRICITY":5.912e-5,"INCLINATION":0.0239,"RA_OF_ASC_NODE":102.3974,"ARG_OF_PERICENTER":55.2994,"MEAN_ANOMALY":257.9103,"EPHEMERIS_TYPE":0,"CLASSIFICATION_TYPE":"U","NORAD_CAT_ID":40663,"ELEMENT_SET_NO":999,"REV_AT_EPOCH":3950,"BSTAR":0,"MEAN_MOTION_DOT":-1.03e-6,"MEAN_MOTION_DDOT":0},{"OBJECT_NAME":"SKY MEXICO-1","OBJECT_ID":"2015-026B","EPOCH":"2026-03-15T06:23:02.228928","MEAN_MOTION":1.00271888,"ECCENTRICITY":0.0002205,"INCLINATION":0.0155,"RA_OF_ASC_NODE":178.4373,"ARG_OF_PERICENTER":200.5132,"MEAN_ANOMALY":170.8733,"EPHEMERIS_TYPE":0,"CLASSIFICATION_TYPE":"U","NORAD_CAT_ID":40664,"ELEMENT_SET_NO":999,"REV_AT_EPOCH":3951,"BSTAR":0,"MEAN_MOTION_DOT":-2.35e-6,"MEAN_MOTION_DDOT":0},{"OBJECT_NAME":"METEOSAT-11 (MSG-4)","OBJECT_ID":"2015-034A","EPOCH":"2026-03-15T06:42:38.858688","MEAN_MOTION":1.00269539,"ECCENTRICITY":0.00018323,"INCLINATION":2.9656,"RA_OF_ASC_NODE":71.6157,"ARG_OF_PERICENTER":275.2073,"MEAN_ANOMALY":295.9483,"EPHEMERIS_TYPE":0,"CLASSIFICATION_TYPE":"U","NORAD_CAT_ID":40732,"ELEMENT_SET_NO":999,"REV_AT_EPOCH":627,"BSTAR":0,"MEAN_MOTION_DOT":6.2e-7,"MEAN_MOTION_DDOT":0},{"OBJECT_NAME":"STAR ONE C4","OBJECT_ID":"2015-034B","EPOCH":"2026-03-14T18:26:29.474016","MEAN_MOTION":1.00270306,"ECCENTRICITY":0.00028545,"INCLINATION":0.0437,"RA_OF_ASC_NODE":358.0702,"ARG_OF_PERICENTER":12.5797,"MEAN_ANOMALY":8.3324,"EPHEMERIS_TYPE":0,"CLASSIFICATION_TYPE":"U","NORAD_CAT_ID":40733,"ELEMENT_SET_NO":999,"REV_AT_EPOCH":3906,"BSTAR":0,"MEAN_MOTION_DOT":-2.66e-6,"MEAN_MOTION_DDOT":0},{"OBJECT_NAME":"WGS F7 (USA 263)","OBJECT_ID":"2015-036A","EPOCH":"2026-03-13T14:30:54.973152","MEAN_MOTION":1.00272244,"ECCENTRICITY":2.253e-5,"INCLINATION":0.0131,"RA_OF_ASC_NODE":135.051,"ARG_OF_PERICENTER":270.5458,"MEAN_ANOMALY":158.3684,"EPHEMERIS_TYPE":0,"CLASSIFICATION_TYPE":"U","NORAD_CAT_ID":40746,"ELEMENT_SET_NO":999,"REV_AT_EPOCH":3891,"BSTAR":0,"MEAN_MOTION_DOT":1.7e-7,"MEAN_MOTION_DDOT":0},{"OBJECT_NAME":"ARIANE 2 DEB","OBJECT_ID":"1989-006CG","EPOCH":"2026-03-12T17:07:23.471040","MEAN_MOTION":2.25300015,"ECCENTRICITY":0.71331156,"INCLINATION":8.0243,"RA_OF_ASC_NODE":286.0438,"ARG_OF_PERICENTER":29.4934,"MEAN_ANOMALY":281.3742,"EPHEMERIS_TYPE":0,"CLASSIFICATION_TYPE":"U","NORAD_CAT_ID":40787,"ELEMENT_SET_NO":999,"REV_AT_EPOCH":10126,"BSTAR":-0.0012526877,"MEAN_MOTION_DOT":-2.07e-6,"MEAN_MOTION_DDOT":0},{"OBJECT_NAME":"CZ-3A DEB","OBJECT_ID":"2007-003AS","EPOCH":"2026-03-15T04:26:30.280416","MEAN_MOTION":1.72447979,"ECCENTRICITY":0.76654485,"INCLINATION":26.667,"RA_OF_ASC_NODE":81.0739,"ARG_OF_PERICENTER":157.3337,"MEAN_ANOMALY":275.0403,"EPHEMERIS_TYPE":0,"CLASSIFICATION_TYPE":"U","NORAD_CAT_ID":40813,"ELEMENT_SET_NO":999,"REV_AT_EPOCH":8284,"BSTAR":0.0017533245,"MEAN_MOTION_DOT":2.19e-6,"MEAN_MOTION_DDOT":0},{"OBJECT_NAME":"CZ-3B DEB","OBJECT_ID":"2010-042X","EPOCH":"2026-03-13T23:25:26.390496","MEAN_MOTION":1.90414327,"ECCENTRICITY":0.73778433,"INCLINATION":25.9207,"RA_OF_ASC_NODE":180.8116,"ARG_OF_PERICENTER":120.6304,"MEAN_ANOMALY":330.8059,"EPHEMERIS_TYPE":0,"CLASSIFICATION_TYPE":"U","NORAD_CAT_ID":40814,"ELEMENT_SET_NO":999,"REV_AT_EPOCH":7895,"BSTAR":-0.0085314593,"MEAN_MOTION_DOT":-1.56e-6,"MEAN_MOTION_DDOT":0},{"OBJECT_NAME":"CZ-3B DEB","OBJECT_ID":"2010-042Y","EPOCH":"2026-03-10T11:39:50.157216","MEAN_MOTION":1.91047615,"ECCENTRICITY":0.7333878,"INCLINATION":25.9145,"RA_OF_ASC_NODE":159.4603,"ARG_OF_PERICENTER":172.1817,"MEAN_ANOMALY":213.9888,"EPHEMERIS_TYPE":0,"CLASSIFICATION_TYPE":"U","NORAD_CAT_ID":40815,"ELEMENT_SET_NO":999,"REV_AT_EPOCH":489,"BSTAR":-0.008831919,"MEAN_MOTION_DOT":-3.31e-6,"MEAN_MOTION_DDOT":0},{"OBJECT_NAME":"CZ-3C DEB","OBJECT_ID":"2010-057AK","EPOCH":"2026-03-10T05:49:12.868320","MEAN_MOTION":2.25732261,"ECCENTRICITY":0.7128834,"INCLINATION":19.8758,"RA_OF_ASC_NODE":129.9753,"ARG_OF_PERICENTER":100.5267,"MEAN_ANOMALY":339.8842,"EPHEMERIS_TYPE":0,"CLASSIFICATION_TYPE":"U","NORAD_CAT_ID":40818,"ELEMENT_SET_NO":999,"REV_AT_EPOCH":9074,"BSTAR":0.00013505,"MEAN_MOTION_DOT":1.4e-7,"MEAN_MOTION_DDOT":0},{"OBJECT_NAME":"CZ-3C DEB","OBJECT_ID":"2010-057AQ","EPOCH":"2026-03-15T02:01:13.394784","MEAN_MOTION":2.23709357,"ECCENTRICITY":0.71945681,"INCLINATION":20.4341,"RA_OF_ASC_NODE":98.7924,"ARG_OF_PERICENTER":144.1876,"MEAN_ANOMALY":297.5755,"EPHEMERIS_TYPE":0,"CLASSIFICATION_TYPE":"U","NORAD_CAT_ID":40823,"ELEMENT_SET_NO":999,"REV_AT_EPOCH":9091,"BSTAR":-0.00038727781,"MEAN_MOTION_DOT":-8.0e-8,"MEAN_MOTION_DDOT":0},{"OBJECT_NAME":"CZ-3C DEB","OBJECT_ID":"2010-057BB","EPOCH":"2026-03-01T11:11:25.935360","MEAN_MOTION":2.19667406,"ECCENTRICITY":0.71664956,"INCLINATION":19.8197,"RA_OF_ASC_NODE":176.3974,"ARG_OF_PERICENTER":22.5012,"MEAN_ANOMALY":357.1343,"EPHEMERIS_TYPE":0,"CLASSIFICATION_TYPE":"U","NORAD_CAT_ID":40834,"ELEMENT_SET_NO":999,"REV_AT_EPOCH":8814,"BSTAR":0.0019935,"MEAN_MOTION_DOT":-1.5e-6,"MEAN_MOTION_DDOT":0},{"OBJECT_NAME":"CZ-3C DEB","OBJECT_ID":"2010-057BC","EPOCH":"2026-03-14T13:05:02.470272","MEAN_MOTION":2.20288367,"ECCENTRICITY":0.72016013,"INCLINATION":19.5239,"RA_OF_ASC_NODE":147.9908,"ARG_OF_PERICENTER":77.9194,"MEAN_ANOMALY":348.0944,"EPHEMERIS_TYPE":0,"CLASSIFICATION_TYPE":"U","NORAD_CAT_ID":40835,"ELEMENT_SET_NO":999,"REV_AT_EPOCH":1027,"BSTAR":0.00022000972,"MEAN_MOTION_DOT":-2.5e-7,"MEAN_MOTION_DDOT":0},{"OBJECT_NAME":"CZ-3B DEB","OBJECT_ID":"2011-077T","EPOCH":"2026-03-10T15:17:08.120256","MEAN_MOTION":1.95779079,"ECCENTRICITY":0.7469643,"INCLINATION":26.1463,"RA_OF_ASC_NODE":255.3588,"ARG_OF_PERICENTER":198.3647,"MEAN_ANOMALY":103.1794,"EPHEMERIS_TYPE":0,"CLASSIFICATION_TYPE":"U","NORAD_CAT_ID":40838,"ELEMENT_SET_NO":999,"REV_AT_EPOCH":7831,"BSTAR":0.0039232,"MEAN_MOTION_DOT":1.031e-5,"MEAN_MOTION_DDOT":0},{"OBJECT_NAME":"CZ-3B DEB","OBJECT_ID":"2011-077X","EPOCH":"2026-03-12T06:24:32.555808","MEAN_MOTION":1.76765281,"ECCENTRICITY":0.7550216,"INCLINATION":22.6952,"RA_OF_ASC_NODE":57.312,"ARG_OF_PERICENTER":50.9448,"MEAN_ANOMALY":354.8805,"EPHEMERIS_TYPE":0,"CLASSIFICATION_TYPE":"U","NORAD_CAT_ID":40842,"ELEMENT_SET_NO":999,"REV_AT_EPOCH":7847,"BSTAR":-0.0013205,"MEAN_MOTION_DOT":-1.02e-6,"MEAN_MOTION_DDOT":0},{"OBJECT_NAME":"CZ-3B DEB","OBJECT_ID":"2011-077AA","EPOCH":"2026-03-13T07:56:42.643968","MEAN_MOTION":2.07540885,"ECCENTRICITY":0.74064773,"INCLINATION":21.4884,"RA_OF_ASC_NODE":168.59,"ARG_OF_PERICENTER":134.3351,"MEAN_ANOMALY":317.2109,"EPHEMERIS_TYPE":0,"CLASSIFICATION_TYPE":"U","NORAD_CAT_ID":40845,"ELEMENT_SET_NO":999,"REV_AT_EPOCH":9032,"BSTAR":0.0052224373,"MEAN_MOTION_DOT":2.785e-5,"MEAN_MOTION_DDOT":0}]
