TURKMENALEM52E/MONACOSAT
1 40617U 15023A   26074.22058451  .00000103  00000+0  00000+0 0  9997
2 40617   0.0352  98.4476 0002927 265.8602 299.9310  1.00273050 39909
DIRECTV 15              
1 40663U 15026A   26072.96364175 -.00000103  00000+0  00000+0 0  9994
2 40663   0.0239 102.3974 0000591  55.2994 257.9103  1.00273949 39509
SKY MEXICO-1            
1 40664U 15026B   26074.26599802 -.00000235  00000+0  00000+0 0  9993
2 40664   0.0155 178.4373 0002205 200.5132 170.8733  1.00271888 39510
METEOSAT-11 (MSG-4)     
1 40732U 15034A   26074.27961642  .00000062  00000+0  00000+0 0  9991
2 40732   2.9656  71.6157 0001832 275.2073 295.9483  1.00269539  6273
STAR ONE C4             
1 40733U 15034B   26073.76839669 -.00000266  00000+0  00000+0 0  9995
2 40733   0.0437 358.0702 0002854  12.5797   8.3324  1.00270306 39065
WGS F7 (USA 263)        
1 40746U 15036A   26072.60480293  .00000017  00000+0  00000+0 0  9991
2 40746   0.0131 135.0510 0000225 270.5458 158.3684  1.00272244 38911
ARIANE 2 DEB            
1 40787U 89006CG  26071.71346610 -.00000207  00000+0 -12527-2 0  9992
2 40787   8.0243 286.0438 7133115  29.4934 281.3742  2.25300015101263
CZ-3A DEB               
1 40813U 07003AS  26074.18507269  .00000219  00000+0  17533-2 0  9995
2 40813  26.6670  81.0739 7665448 157.3337 275.0403  1.72447979 82845
CZ-3B DEB               
1 40814U 10042X   26072.97599989 -.00000156  00000+0 -85315-2 0  9993
2 40814  25.9207 180.8116 7377843 120.6304 330.8059  1.90414327 78952
CZ-3B DEB               
1 40815U 10042Y   26069.48599719 -.00000331  00000+0 -88319-2 0  9999
2 40815  25.9145 159.4603 7333878 172.1817 213.9888  1.91047615  4894
CZ-3C DEB               
1 40818U 10057AK  26069.24251005  .00000014  00000+0  13505-3 0  9997
2 40818  19.8758 129.9753 7128834 100.5267 339.8842  2.25732261 90748
CZ-3C DEB               
1 40823U 10057AQ  26074.08418281 -.00000008  00000+0 -38728-3 0  9991
2 40823  20.4341  98.7924 7194568 144.1876 297.5755  2.23709357 90910
CZ-3C DEB               
1 40834U 10057BB  26060.46627240 -.00000150  00000+0  19935-2 0  9992
2 40834  19.8197 176.3974 7166495  22.5012 357.1343  2.19667406 88141
CZ-3C DEB               
1 40835U 10057BC  26073.54516748 -.00000025  00000+0  22001-3 0  9996
2 40835  19.5239 147.9908 7201601  77.9194 348.0944  2.20288367 10273
CZ-3B DEB               
1 40838U 11077T   26069.63689954  .00001031  00000+0  39232-2 0  9997
2 40838  26.1463 255.3588 7469643 198.3647 103.1794  1.95779079 78318
CZ-3B DEB               
1 40842U 11077X   26071.26704347 -.00000102  00000+0 -13205-2 0  9990
2 40842  22.6952  57.3120 7550216  50.9448 354.8805  1.76765281 78472
CZ-3B DEB               
1 40845U 11077AA  26072.33104912  .00002785  00000+0  52224-2 0  9995
2 40845  21.4884 168.5900 7406477 134.3351 317.2109  2.07540885 90320
